{"type": "FeatureCollection", "features": [ {"type": "Feature", "properties": {"norad_id": 44476, "name": "INTELSAT 39 (IS-39)", "group": "intelsat", "lat": -0.017724848869842054, "lon": -146.73820953167836, "alt_km": 35784.595531775085, "timestamp": "2025-12-24T03:53:29.310424+00:00", "meta": {"OBJECT_NAME": "INTELSAT 39 (IS-39)", "OBJECT_ID": "2019-049B", "EPOCH": "2025-12-23T19:28:19.802784", "MEAN_MOTION": 1.00270259, "ECCENTRICITY": 0.0001152, "INCLINATION": 0.0167, "RA_OF_ASC_NODE": 4.4271, "ARG_OF_PERICENTER": 142.0762, "MEAN_ANOMALY": 300.1193, "EPHEMERIS_TYPE": 0, "CLASSIFICATION_TYPE": "U", "NORAD_CAT_ID": 44476, "ELEMENT_SET_NO": 999, "REV_AT_EPOCH": 2337, "BSTAR": 0, "MEAN_MOTION_DOT": 5.5e-07, "MEAN_MOTION_DDOT": 0}, "tle": {"line1": "1 44476U 19049B   25357.81134031  .00000055  00000+0  00000+0 0  9999", "line2": "2 44476   0.0167   4.4271 0001152 142.0762 300.1193  1.00270259 23378"}}, "geometry": {"type": "Point", "coordinates": [-146.73820953167836, -0.017724848869842054]}}, {"type": "Feature", "properties": {"norad_id": 46114, "name": "GALAXY 30 (G-30)", "group": "intelsat", "lat": 0.010550192427278606, "lon": 26.325219100675334, "alt_km": 35790.59749319204, "timestamp": "2025-12-24T03:53:29.310436+00:00", "meta": {"OBJECT_NAME": "GALAXY 30 (G-30)", "OBJECT_ID": "2020-056C", "EPOCH": "2025-12-23T03:38:39.356160", "MEAN_MOTION": 1.00270214, "ECCENTRICITY": 0.00020157, "INCLINATION": 0.0188, "RA_OF_ASC_NODE": 12.6466, "ARG_OF_PERICENTER": 254.5213, "MEAN_ANOMALY": 114.4446, "EPHEMERIS_TYPE": 0, "CLASSIFICATION_TYPE": "U", "NORAD_CAT_ID": 46114, "ELEMENT_SET_NO": 999, "REV_AT_EPOCH": 1952, "BSTAR": 0, "MEAN_MOTION_DOT": 5.8e-07, "MEAN_MOTION_DDOT": 0}, "tle": {"line1": "1 46114U 20056C   25357.15184440  .00000058  00000+0  00000+0 0  9999", "line2": "2 46114   0.0188  12.6466 0002015 254.5213 114.4446  1.00270214 19528"}}, "geometry": {"type": "Point", "coordinates": [26.325219100675334, 0.010550192427278606]}}, {"type": "Feature", "properties": {"norad_id": 54026, "name": "GALAXY 33 (G-33)", "group": "intelsat", "lat": 0.01646640453419682, "lon": 18.329189993115506, "alt_km": 35788.73049223623, "timestamp": "2025-12-24T03:53:29.310447+00:00", "meta": {"OBJECT_NAME": "GALAXY 33 (G-33)", "OBJECT_ID": "2022-128A", "EPOCH": "2025-12-22T11:35:15.906336", "MEAN_MOTION": 1.00271669, "ECCENTRICITY": 0.00015964, "INCLINATION": 0.0184, "RA_OF_ASC_NODE": 305.6803, "ARG_OF_PERICENTER": 318.2802, "MEAN_ANOMALY": 228.1459, "EPHEMERIS_TYPE": 0, "CLASSIFICATION_TYPE": "U", "NORAD_CAT_ID": 54026, "ELEMENT_SET_NO": 999, "REV_AT_EPOCH": 1197, "BSTAR": 0, "MEAN_MOTION_DOT": 1.01e-06, "MEAN_MOTION_DDOT": 0}, "tle": {"line1": "1 54026U 22128A   25356.48282299  .00000101  00000+0  00000+0 0  9997", "line2": "2 54026   0.0184 305.6803 0001596 318.2802 228.1459  1.00271669 11973"}}, "geometry": {"type": "Point", "coordinates": [18.329189993115506, 0.01646640453419682]}}, {"type": "Feature", "properties": {"norad_id": 54027, "name": "GALAXY 34 (G-34)", "group": "intelsat", "lat": 0.018747934135413095, "lon": 22.36556902949596, "alt_km": 35790.29201026899, "timestamp": "2025-12-24T03:53:29.310459+00:00", "meta": {"OBJECT_NAME": "GALAXY 34 (G-34)", "OBJECT_ID": "2022-128B", "EPOCH": "2025-12-23T15:56:35.633184", "MEAN_MOTION": 1.00269552, "ECCENTRICITY": 0.000177, "INCLINATION": 0.0227, "RA_OF_ASC_NODE": 350.2432, "ARG_OF_PERICENTER": 273.0766, "MEAN_ANOMALY": 299.324, "EPHEMERIS_TYPE": 0, "CLASSIFICATION_TYPE": "U", "NORAD_CAT_ID": 54027, "ELEMENT_SET_NO": 999, "REV_AT_EPOCH": 1215, "BSTAR": 0, "MEAN_MOTION_DOT": 0, "MEAN_MOTION_DDOT": 0}, "tle": {"line1": "1 54027U 22128B   25357.66430131  .00000000  00000+0  00000+0 0  9997", "line2": "2 54027   0.0227 350.2432 0001770 273.0766 299.3240  1.00269552 12154"}}, "geometry": {"type": "Point", "coordinates": [22.36556902949596, 0.018747934135413095]}}, {"type": "Feature", "properties": {"norad_id": 54243, "name": "GALAXY 31 (G-31)", "group": "intelsat", "lat": 0.011882701184860596, "lon": 30.31846318343908, "alt_km": 35788.14425689693, "timestamp": "2025-12-24T03:53:29.310471+00:00", "meta": {"OBJECT_NAME": "GALAXY 31 (G-31)", "OBJECT_ID": "2022-153A", "EPOCH": "2025-12-23T15:58:50.418048", "MEAN_MOTION": 1.00271329, "ECCENTRICITY": 0.0001474, "INCLINATION": 0.0283, "RA_OF_ASC_NODE": 245.972, "ARG_OF_PERICENTER": 36.0828, "MEAN_ANOMALY": 289.1035, "EPHEMERIS_TYPE": 0, "CLASSIFICATION_TYPE": "U", "NORAD_CAT_ID": 54243, "ELEMENT_SET_NO": 999, "REV_AT_EPOCH": 537, "BSTAR": 0, "MEAN_MOTION_DOT": 3.4e-07, "MEAN_MOTION_DDOT": 0}, "tle": {"line1": "1 54243U 22153A   25357.66586132  .00000034  00000+0  00000+0 0  9995", "line2": "2 54243   0.0283 245.9720 0001474  36.0828 289.1035  1.00271329  5373"}}, "geometry": {"type": "Point", "coordinates": [30.31846318343908, 0.011882701184860596]}}, {"type": "Feature", "properties": {"norad_id": 54244, "name": "GALAXY 32 (G-32)", "group": "intelsat", "lat": 0.028108596731446535, "lon": 60.31710818164269, "alt_km": 35788.18500906596, "timestamp": "2025-12-24T03:53:29.310483+00:00", "meta": {"OBJECT_NAME": "GALAXY 32 (G-32)", "OBJECT_ID": "2022-153B", "EPOCH": "2025-12-22T07:35:47.616576", "MEAN_MOTION": 1.00270236, "ECCENTRICITY": 0.00019823, "INCLINATION": 0.0109, "RA_OF_ASC_NODE": 353.9495, "ARG_OF_PERICENTER": 325.6757, "MEAN_ANOMALY": 154.4441, "EPHEMERIS_TYPE": 0, "CLASSIFICATION_TYPE": "U", "NORAD_CAT_ID": 54244, "ELEMENT_SET_NO": 999, "REV_AT_EPOCH": 1137, "BSTAR": 0, "MEAN_MOTION_DOT": -1.52e-06, "MEAN_MOTION_DDOT": 0}, "tle": {"line1": "1 54244U 22153B   25356.31652334 -.00000152  00000+0  00000+0 0  9997", "line2": "2 54244   0.0109 353.9495 0001982 325.6757 154.4441  1.00270236 11370"}}, "geometry": {"type": "Point", "coordinates": [60.31710818164269, 0.028108596731446535]}}, {"type": "Feature", "properties": {"norad_id": 54741, "name": "GALAXY 35 (G-35)", "group": "intelsat", "lat": 0.0014820746310213958, "lon": 58.23060110883342, "alt_km": 35793.73655068889, "timestamp": "2025-12-24T03:53:29.310495+00:00", "meta": {"OBJECT_NAME": "GALAXY 35 (G-35)", "OBJECT_ID": "2022-170A", "EPOCH": "2025-12-23T04:13:27.577632", "MEAN_MOTION": 1.00271562, "ECCENTRICITY": 0.00022113, "INCLINATION": 0.0227, "RA_OF_ASC_NODE": 87.6624, "ARG_OF_PERICENTER": 186.8343, "MEAN_ANOMALY": 147.7469, "EPHEMERIS_TYPE": 0, "CLASSIFICATION_TYPE": "U", "NORAD_CAT_ID": 54741, "ELEMENT_SET_NO": 999, "REV_AT_EPOCH": 1112, "BSTAR": 0, "MEAN_MOTION_DOT": -1.41e-06, "MEAN_MOTION_DDOT": 0}, "tle": {"line1": "1 54741U 22170A   25357.17601363 -.00000141  00000+0  00000+0 0  9997", "line2": "2 54741   0.0227  87.6624 0002211 186.8343 147.7469  1.00271562 11123"}}, "geometry": {"type": "Point", "coordinates": [58.23060110883342, 0.0014820746310213958]}}, {"type": "Feature", "properties": {"norad_id": 54742, "name": "GALAXY 36 (G-36)", "group": "intelsat", "lat": 0.010358017016708892, "lon": 62.307477686798244, "alt_km": 35786.220121069986, "timestamp": "2025-12-24T03:53:29.310506+00:00", "meta": {"OBJECT_NAME": "GALAXY 36 (G-36)", "OBJECT_ID": "2022-170B", "EPOCH": "2025-12-23T06:09:11.626848", "MEAN_MOTION": 1.00270403, "ECCENTRICITY": 4.607e-05, "INCLINATION": 0.0188, "RA_OF_ASC_NODE": 66.7013, "ARG_OF_PERICENTER": 274.6982, "MEAN_ANOMALY": 113.9474, "EPHEMERIS_TYPE": 0, "CLASSIFICATION_TYPE": "U", "NORAD_CAT_ID": 54742, "ELEMENT_SET_NO": 999, "REV_AT_EPOCH": 1101, "BSTAR": 0, "MEAN_MOTION_DOT": -1.64e-06, "MEAN_MOTION_DDOT": 0}, "tle": {"line1": "1 54742U 22170B   25357.25638457 -.00000164  00000+0  00000+0 0  9996", "line2": "2 54742   0.0188  66.7013 0000460 274.6982 113.9474  1.00270403 11011"}}, "geometry": {"type": "Point", "coordinates": [62.307477686798244, 0.010358017016708892]}}, {"type": "Feature", "properties": {"norad_id": 57493, "name": "GALAXY 37 (G-37)", "group": "intelsat", "lat": 0.013814557386056723, "lon": 24.31991354184307, "alt_km": 35788.765578682935, "timestamp": "2025-12-24T03:53:29.310518+00:00", "meta": {"OBJECT_NAME": "GALAXY 37 (G-37)", "OBJECT_ID": "2023-112A", "EPOCH": "2025-12-23T15:57:05.583744", "MEAN_MOTION": 1.00271472, "ECCENTRICITY": 0.0002023, "INCLINATION": 0.0168, "RA_OF_ASC_NODE": 359.8398, "ARG_OF_PERICENTER": 276.5793, "MEAN_ANOMALY": 288.2964, "EPHEMERIS_TYPE": 0, "CLASSIFICATION_TYPE": "U", "NORAD_CAT_ID": 57493, "ELEMENT_SET_NO": 999, "REV_AT_EPOCH": 878, "BSTAR": 0, "MEAN_MOTION_DOT": 6.9e-07, "MEAN_MOTION_DDOT": 0}, "tle": {"line1": "1 57493U 23112A   25357.66464796  .00000069  00000+0  00000+0 0  9990", "line2": "2 57493   0.0168 359.8398 0002023 276.5793 288.2964  1.00271472  8782"}}, "geometry": {"type": "Point", "coordinates": [24.31991354184307, 0.013814557386056723]}}]}